[
  {
    "COMMENT": "GENERATED VIA SPACETRACK.ORG API",
    "ORIGINATOR": "18 SPCS",
    "NORAD_CAT_ID": "54754",
    "OBJECT_NAME": "SWOT",
    "OBJECT_TYPE": "PAYLOAD",
    "CLASSIFICATION_TYPE": "U",
    "INTLDES": "22173A",
    "EPOCH": "2023-05-30 14:19:36",
    "EPOCH_MICROSECONDS": "339168",
    "MEAN_MOTION": "14.09854494",
    "ECCENTRICITY": "0.0000968",
    "INCLINATION": "77.6076",
    "RA_OF_ASC_NODE": "99.4762",
    "ARG_OF_PERICENTER": "189.4017",
    "MEAN_ANOMALY": "170.7122",
    "EPHEMERIS_TYPE": "0",
    "ELEMENT_SET_NO": "999",
    "REV_AT_EPOCH": "2326",
    "BSTAR": "0.00011804",
    "MEAN_MOTION_DOT": "0.00000205",
    "MEAN_MOTION_DDOT": "0",
    "FILE": "3920920",
    "TLE_LINE0": "0 SWOT",
    "TLE_LINE1": "1 54754U 22173A   23150.59694837  .00000205  00000-0  11804-3 0  9996",
    "TLE_LINE2": "2 54754  77.6076  99.4762 0000968 189.4017 170.7122 14.09854494 23261",
    "OBJECT_ID": "2022-173A",
    "OBJECT_NUMBER": "54754",
    "SEMIMAJOR_AXIS": "7238.007",
    "PERIOD": "102.138",
    "APOGEE": "860.572",
    "PERIGEE": "859.171",
    "DECAYED": "0"
  },
  {
    "COMMENT": "GENERATED VIA SPACETRACK.ORG API",
    "ORIGINATOR": "18 SPCS",
    "NORAD_CAT_ID": "54754",
    "OBJECT_NAME": "SWOT",
    "OBJECT_TYPE": "PAYLOAD",
    "CLASSIFICATION_TYPE": "U",
    "INTLDES": "22173A",
    "EPOCH": "2023-05-30 19:26:10",
    "EPOCH_MICROSECONDS": "143168",
    "MEAN_MOTION": "14.0985459",
    "ECCENTRICITY": "0.0000966",
    "INCLINATION": "77.6076",
    "RA_OF_ASC_NODE": "99.1841",
    "ARG_OF_PERICENTER": "189.222",
    "MEAN_ANOMALY": "170.8919",
    "EPHEMERIS_TYPE": "0",
    "ELEMENT_SET_NO": "999",
    "REV_AT_EPOCH": "2329",
    "BSTAR": "0.00011664",
    "MEAN_MOTION_DOT": "0.00000202",
    "MEAN_MOTION_DDOT": "0",
    "FILE": "3921088",
    "TLE_LINE0": "0 SWOT",
    "TLE_LINE1": "1 54754U 22173A   23150.80983962  .00000202  00000-0  11664-3 0  9991",
    "TLE_LINE2": "2 54754  77.6076  99.1841 0000966 189.2220 170.8919 14.09854590 23293",
    "OBJECT_ID": "2022-173A",
    "OBJECT_NUMBER": "54754",
    "SEMIMAJOR_AXIS": "7238.006",
    "PERIOD": "102.138",
    "APOGEE": "860.571",
    "PERIGEE": "859.172",
    "DECAYED": "0"
  },
  {
    "COMMENT": "GENERATED VIA SPACETRACK.ORG API",
    "ORIGINATOR": "18 SPCS",
    "NORAD_CAT_ID": "54754",
    "OBJECT_NAME": "SWOT",
    "OBJECT_TYPE": "PAYLOAD",
    "CLASSIFICATION_TYPE": "U",
    "INTLDES": "22173A",
    "EPOCH": "2023-05-30 21:08:21",
    "EPOCH_MICROSECONDS": "408576",
    "MEAN_MOTION": "14.0985463",
    "ECCENTRICITY": "0.0000964",
    "INCLINATION": "77.6076",
    "RA_OF_ASC_NODE": "99.0868",
    "ARG_OF_PERICENTER": "189.2493",
    "MEAN_ANOMALY": "170.8647",
    "EPHEMERIS_TYPE": "0",
    "ELEMENT_SET_NO": "999",
    "REV_AT_EPOCH": "2330",
    "BSTAR": "0.00011658",
    "MEAN_MOTION_DOT": "0.00000202",
    "MEAN_MOTION_DDOT": "0",
    "FILE": "3921192",
    "TLE_LINE0": "0 SWOT",
    "TLE_LINE1": "1 54754U 22173A   23150.88080334  .00000202  00000-0  11658-3 0  9993",
    "TLE_LINE2": "2 54754  77.6076  99.0868 0000964 189.2493 170.8647 14.09854630 23306",
    "OBJECT_ID": "2022-173A",
    "OBJECT_NUMBER": "54754",
    "SEMIMAJOR_AXIS": "7238.006",
    "PERIOD": "102.138",
    "APOGEE": "860.569",
    "PERIGEE": "859.173",
    "DECAYED": "0"
  },
  {
    "COMMENT": "GENERATED VIA SPACETRACK.ORG API",
    "ORIGINATOR": "18 SPCS",
    "NORAD_CAT_ID": "54754",
    "OBJECT_NAME": "SWOT",
    "OBJECT_TYPE": "PAYLOAD",
    "CLASSIFICATION_TYPE": "U",
    "INTLDES": "22173A",
    "EPOCH": "2023-05-31 14:10:14",
    "EPOCH_MICROSECONDS": "77344",
    "MEAN_MOTION": "14.0985496",
    "ECCENTRICITY": "0.0000953",
    "INCLINATION": "77.6078",
    "RA_OF_ASC_NODE": "98.1132",
    "ARG_OF_PERICENTER": "188.6956",
    "MEAN_ANOMALY": "171.4184",
    "EPHEMERIS_TYPE": "0",
    "ELEMENT_SET_NO": "999",
    "REV_AT_EPOCH": "2340",
    "BSTAR": "0.00011833",
    "MEAN_MOTION_DOT": "0.00000205",
    "MEAN_MOTION_DDOT": "0",
    "FILE": "3921767",
    "TLE_LINE0": "0 SWOT",
    "TLE_LINE1": "1 54754U 22173A   23151.59044071  .00000205  00000-0  11833-3 0  9998",
    "TLE_LINE2": "2 54754  77.6078  98.1132 0000953 188.6956 171.4184 14.09854960 23407",
    "OBJECT_ID": "2022-173A",
    "OBJECT_NUMBER": "54754",
    "SEMIMAJOR_AXIS": "7238.005",
    "PERIOD": "102.138",
    "APOGEE": "860.560",
    "PERIGEE": "859.180",
    "DECAYED": "0"
  },
  {
    "COMMENT": "GENERATED VIA SPACETRACK.ORG API",
    "ORIGINATOR": "18 SPCS",
    "NORAD_CAT_ID": "54754",
    "OBJECT_NAME": "SWOT",
    "OBJECT_TYPE": "PAYLOAD",
    "CLASSIFICATION_TYPE": "U",
    "INTLDES": "22173A",
    "EPOCH": "2023-05-31 20:58:59",
    "EPOCH_MICROSECONDS": "137248",
    "MEAN_MOTION": "14.09855121",
    "ECCENTRICITY": "0.0000948",
    "INCLINATION": "77.6078",
    "RA_OF_ASC_NODE": "97.7238",
    "ARG_OF_PERICENTER": "188.7911",
    "MEAN_ANOMALY": "171.3229",
    "EPHEMERIS_TYPE": "0",
    "ELEMENT_SET_NO": "999",
    "REV_AT_EPOCH": "2344",
    "BSTAR": "0.00012074",
    "MEAN_MOTION_DOT": "0.0000021",
    "MEAN_MOTION_DDOT": "0",
    "FILE": "3922037",
    "TLE_LINE0": "0 SWOT",
    "TLE_LINE1": "1 54754U 22173A   23151.87429557  .00000210  00000-0  12074-3 0  9999",
    "TLE_LINE2": "2 54754  77.6078  97.7238 0000948 188.7911 171.3229 14.09855121 23448",
    "OBJECT_ID": "2022-173A",
    "OBJECT_NUMBER": "54754",
    "SEMIMAJOR_AXIS": "7238.005",
    "PERIOD": "102.138",
    "APOGEE": "860.556",
    "PERIGEE": "859.183",
    "DECAYED": "0"
  },
  {
    "COMMENT": "GENERATED VIA SPACETRACK.ORG API",
    "ORIGINATOR": "18 SPCS",
    "NORAD_CAT_ID": "54754",
    "OBJECT_NAME": "SWOT",
    "OBJECT_TYPE": "PAYLOAD",
    "CLASSIFICATION_TYPE": "U",
    "INTLDES": "22173A",
    "EPOCH": "2023-06-01 02:05:32",
    "EPOCH_MICROSECONDS": "934336",
    "MEAN_MOTION": "14.09855195",
    "ECCENTRICITY": "0.0000946",
    "INCLINATION": "77.6079",
    "RA_OF_ASC_NODE": "97.4317",
    "ARG_OF_PERICENTER": "188.5661",
    "MEAN_ANOMALY": "171.548",
    "EPHEMERIS_TYPE": "0",
    "ELEMENT_SET_NO": "999",
    "REV_AT_EPOCH": "2347",
    "BSTAR": "0.00012162",
    "MEAN_MOTION_DOT": "0.00000211",
    "MEAN_MOTION_DDOT": "0",
    "FILE": "3922302",
    "TLE_LINE0": "0 SWOT",
    "TLE_LINE1": "1 54754U 22173A   23152.08718674  .00000211  00000-0  12162-3 0  9993",
    "TLE_LINE2": "2 54754  77.6079  97.4317 0000946 188.5661 171.5480 14.09855195 23477",
    "OBJECT_ID": "2022-173A",
    "OBJECT_NUMBER": "54754",
    "SEMIMAJOR_AXIS": "7238.004",
    "PERIOD": "102.138",
    "APOGEE": "860.554",
    "PERIGEE": "859.185",
    "DECAYED": "0"
  },
  {
    "COMMENT": "GENERATED VIA SPACETRACK.ORG API",
    "ORIGINATOR": "18 SPCS",
    "NORAD_CAT_ID": "54754",
    "OBJECT_NAME": "SWOT",
    "OBJECT_TYPE": "PAYLOAD",
    "CLASSIFICATION_TYPE": "U",
    "INTLDES": "22173A",
    "EPOCH": "2023-06-01 10:36:29",
    "EPOCH_MICROSECONDS": "256192",
    "MEAN_MOTION": "14.09855393",
    "ECCENTRICITY": "0.0000942",
    "INCLINATION": "77.6079",
    "RA_OF_ASC_NODE": "96.9449",
    "ARG_OF_PERICENTER": "188.14",
    "MEAN_ANOMALY": "171.9742",
    "EPHEMERIS_TYPE": "0",
    "ELEMENT_SET_NO": "999",
    "REV_AT_EPOCH": "2352",
    "BSTAR": "0.00012287",
    "MEAN_MOTION_DOT": "0.00000213",
    "MEAN_MOTION_DDOT": "0",
    "FILE": "3922365",
    "TLE_LINE0": "0 SWOT",
    "TLE_LINE1": "1 54754U 22173A   23152.44200528  .00000213  00000-0  12287-3 0  9997",
    "TLE_LINE2": "2 54754  77.6079  96.9449 0000942 188.1400 171.9742 14.09855393 23521",
    "OBJECT_ID": "2022-173A",
    "OBJECT_NUMBER": "54754",
    "SEMIMAJOR_AXIS": "7238.004",
    "PERIOD": "102.138",
    "APOGEE": "860.550",
    "PERIGEE": "859.187",
    "DECAYED": "0"
  },
  {
    "COMMENT": "GENERATED VIA SPACETRACK.ORG API",
    "ORIGINATOR": "18 SPCS",
    "NORAD_CAT_ID": "54754",
    "OBJECT_NAME": "SWOT",
    "OBJECT_TYPE": "PAYLOAD",
    "CLASSIFICATION_TYPE": "U",
    "INTLDES": "22173A",
    "EPOCH": "2023-06-01 20:49:36",
    "EPOCH_MICROSECONDS": "842592",
    "MEAN_MOTION": "14.09855591",
    "ECCENTRICITY": "0.0000939",
    "INCLINATION": "77.608",
    "RA_OF_ASC_NODE": "96.3608",
    "ARG_OF_PERICENTER": "187.3676",
    "MEAN_ANOMALY": "172.7467",
    "EPHEMERIS_TYPE": "0",
    "ELEMENT_SET_NO": "999",
    "REV_AT_EPOCH": "2358",
    "BSTAR": "0.00012161",
    "MEAN_MOTION_DOT": "0.00000211",
    "MEAN_MOTION_DDOT": "0",
    "FILE": "3922718",
    "TLE_LINE0": "0 SWOT",
    "TLE_LINE1": "1 54754U 22173A   23152.86778753  .00000211  00000-0  12161-3 0  9992",
    "TLE_LINE2": "2 54754  77.6080  96.3608 0000939 187.3676 172.7467 14.09855591 23585",
    "OBJECT_ID": "2022-173A",
    "OBJECT_NUMBER": "54754",
    "SEMIMAJOR_AXIS": "7238.003",
    "PERIOD": "102.138",
    "APOGEE": "860.548",
    "PERIGEE": "859.188",
    "DECAYED": "0"
  },
  {
    "COMMENT": "GENERATED VIA SPACETRACK.ORG API",
    "ORIGINATOR": "18 SPCS",
    "NORAD_CAT_ID": "54754",
    "OBJECT_NAME": "SWOT",
    "OBJECT_TYPE": "PAYLOAD",
    "CLASSIFICATION_TYPE": "U",
    "INTLDES": "22173A",
    "EPOCH": "2023-06-02 05:20:33",
    "EPOCH_MICROSECONDS": "164448",
    "MEAN_MOTION": "14.09855645",
    "ECCENTRICITY": "0.0000939",
    "INCLINATION": "77.608",
    "RA_OF_ASC_NODE": "95.8739",
    "ARG_OF_PERICENTER": "187.4466",
    "MEAN_ANOMALY": "172.6677",
    "EPHEMERIS_TYPE": "0",
    "ELEMENT_SET_NO": "999",
    "REV_AT_EPOCH": "2363",
    "BSTAR": "0.00011118",
    "MEAN_MOTION_DOT": "0.00000193",
    "MEAN_MOTION_DDOT": "0",
    "FILE": "3923268",
    "TLE_LINE0": "0 SWOT",
    "TLE_LINE1": "1 54754U 22173A   23153.22260607  .00000193  00000-0  11118-3 0  9997",
    "TLE_LINE2": "2 54754  77.6080  95.8739 0000939 187.4466 172.6677 14.09855645 23630",
    "OBJECT_ID": "2022-173A",
    "OBJECT_NUMBER": "54754",
    "SEMIMAJOR_AXIS": "7238.003",
    "PERIOD": "102.138",
    "APOGEE": "860.547",
    "PERIGEE": "859.188",
    "DECAYED": "0"
  }
]